,device_id,identity,bank,device_fingerprint,gpu_renderers,screen,os,browser,ips,country,countryCode,region,regionName,city,zip,lat,lon,timezone,mobile,proxy,hosting,color
595,10645de7-f771-4b97-8dc4-c2de4d3cd9ec,0007f265568f1abc1da791e852877df2047b3af9,Bank8,No data,-,"(780, 360, 24)",Android ,Chrome Mobile WebView 77.0.3865,213.234.222.26,Russia,RU,ALT,Altai Krai,Barnaul,656000,53.3597,83.758,Asia/Barnaul,True,False,False,red
596,10645de7-f771-4b97-8dc4-c2de4d3cd9ec,0007f265568f1abc1da791e852877df2047b3af9,Bank8,No data,-,"(780, 360, 24)",Android ,Chrome Mobile WebView 77.0.3865,213.234.222.27,Russia,RU,ALT,Altai Krai,Barnaul,656000,53.3597,83.758,Asia/Barnaul,True,False,False,red
628,5d2c2da3-0d53-4444-a625-2480606e2c29,0007f265568f1abc1da791e852877df2047b3af9,Bank11,No data,-,"(720, 360, 24)",Android 8.1.0,Chrome Mobile WebView 78.0.3904,188.170.82.15,Russia,RU,SPE,St.-Petersburg,St Petersburg,190000,59.8983,30.2618,Europe/Moscow,True,False,False,red
630,5d2c2da3-0d53-4444-a625-2480606e2c29,0007f265568f1abc1da791e852877df2047b3af9,Bank11,No data,-,"(720, 360, 24)",Android 8.1.0,Chrome Mobile WebView 78.0.3904,95.183.67.120,Russia,RU,MOS,Moscow Oblast,Elektrostal,144007,55.7946,38.4285,Europe/Moscow,False,False,False,red
633,5d2c2da3-0d53-4444-a625-2480606e2c29,0007f265568f1abc1da791e852877df2047b3af9,Bank11,No data,-,"(720, 360, 24)",Android 8.1.0,Chrome Mobile WebView 78.0.3904,213.87.132.124,Russia,RU,MOW,Moscow,Moscow,127434,55.7483,37.6171,Europe/Moscow,True,False,False,red
637,5d2c2da3-0d53-4444-a625-2480606e2c29,0007f265568f1abc1da791e852877df2047b3af9,Bank11,No data,-,"(720, 360, 24)",Android 8.1.0,Chrome Mobile WebView 78.0.3904,213.87.148.103,Russia,RU,MOW,Moscow,Moscow,129075,55.7483,37.6171,Europe/Moscow,True,False,False,red
639,5d2c2da3-0d53-4444-a625-2480606e2c29,0007f265568f1abc1da791e852877df2047b3af9,Bank11,No data,-,"(720, 360, 24)",Android 8.1.0,Chrome Mobile WebView 78.0.3904,188.170.80.114,Russia,RU,SPE,St.-Petersburg,St Petersburg,190031,59.8983,30.2618,Europe/Moscow,True,False,False,red
642,5d2c2da3-0d53-4444-a625-2480606e2c29,0007f265568f1abc1da791e852877df2047b3af9,Bank11,No data,-,"(720, 360, 24)",Android 8.1.0,Chrome Mobile WebView 78.0.3904,213.87.152.172,Russia,RU,MOW,Moscow,Moscow,129075,55.7483,37.6171,Europe/Moscow,True,False,False,red
644,5d2c2da3-0d53-4444-a625-2480606e2c29,0007f265568f1abc1da791e852877df2047b3af9,Bank11,No data,-,"(720, 360, 24)",Android 8.1.0,Chrome Mobile WebView 78.0.3904,213.87.144.30,Russia,RU,MOW,Moscow,Moscow,127434,55.7483,37.6171,Europe/Moscow,True,False,False,red
652,5d2c2da3-0d53-4444-a625-2480606e2c29,0007f265568f1abc1da791e852877df2047b3af9,Bank11,No data,-,"(720, 360, 24)",Android 8.1.0,Chrome Mobile WebView 78.0.3904,213.87.145.239,Russia,RU,MOW,Moscow,Moscow,127434,55.7483,37.6171,Europe/Moscow,True,False,False,red
653,5d2c2da3-0d53-4444-a625-2480606e2c29,0007f265568f1abc1da791e852877df2047b3af9,Bank11,No data,-,"(720, 360, 24)",Android 8.1.0,Chrome Mobile WebView 78.0.3904,213.87.138.255,Russia,RU,MOW,Moscow,Moscow,127434,55.7483,37.6171,Europe/Moscow,True,False,False,red
1048,8db05325-e9d0-4c94-a4a2-efb313f9ab11,0007f265568f1abc1da791e852877df2047b3af9,Bank11,No data,-,"(720, 360, 24)",Android 8.1.0,Chrome Mobile WebView 79.0.3945,188.170.81.214,Russia,RU,SPE,St.-Petersburg,St Petersburg,190987,59.8983,30.2618,Europe/Moscow,True,False,False,red
1050,8db05325-e9d0-4c94-a4a2-efb313f9ab11,0007f265568f1abc1da791e852877df2047b3af9,Bank11,No data,-,"(720, 360, 24)",Android 8.1.0,Chrome Mobile WebView 78.0.3904,188.170.74.50,Russia,RU,SPE,St.-Petersburg,St Petersburg,190000,59.8983,30.2618,Europe/Moscow,True,False,False,red
1051,8db05325-e9d0-4c94-a4a2-efb313f9ab11,0007f265568f1abc1da791e852877df2047b3af9,Bank11,No data,-,"(720, 360, 24)",Android 8.1.0,Chrome Mobile WebView 78.0.3904,188.170.72.184,Russia,RU,SPE,St.-Petersburg,St Petersburg,190971,59.8983,30.2618,Europe/Moscow,True,False,False,red
1054,8db05325-e9d0-4c94-a4a2-efb313f9ab11,0007f265568f1abc1da791e852877df2047b3af9,Bank11,No data,-,"(720, 360, 24)",Android 8.1.0,Chrome Mobile WebView 79.0.3945,213.87.137.148,Russia,RU,MOW,Moscow,Moscow,127434,55.7483,37.6171,Europe/Moscow,True,False,False,red
1055,8db05325-e9d0-4c94-a4a2-efb313f9ab11,0007f265568f1abc1da791e852877df2047b3af9,Bank11,No data,-,"(720, 360, 24)",Android 8.1.0,Chrome Mobile WebView 78.0.3904,213.87.154.7,Russia,RU,MOW,Moscow,Moscow,125315,55.7483,37.6171,Europe/Moscow,True,False,False,red
1056,8db05325-e9d0-4c94-a4a2-efb313f9ab11,0007f265568f1abc1da791e852877df2047b3af9,Bank11,No data,-,"(720, 360, 24)",Android 8.1.0,Chrome Mobile WebView 78.0.3904,213.87.155.220,Russia,RU,MOW,Moscow,Moscow,127434,55.7483,37.6171,Europe/Moscow,True,False,False,red
1058,8db05325-e9d0-4c94-a4a2-efb313f9ab11,0007f265568f1abc1da791e852877df2047b3af9,Bank11,No data,-,"(720, 360, 24)",Android 8.1.0,Chrome Mobile WebView 78.0.3904,213.87.160.228,Russia,RU,MOW,Moscow,Moscow,109386,55.7483,37.6171,Europe/Moscow,True,False,False,red
1059,8db05325-e9d0-4c94-a4a2-efb313f9ab11,0007f265568f1abc1da791e852877df2047b3af9,Bank11,No data,-,"(720, 360, 24)",Android 8.1.0,Chrome Mobile WebView 79.0.3945,188.170.75.14,Russia,RU,SPE,St.-Petersburg,St Petersburg,190971,59.8983,30.2618,Europe/Moscow,True,False,False,red
1060,8db05325-e9d0-4c94-a4a2-efb313f9ab11,0007f265568f1abc1da791e852877df2047b3af9,Bank11,No data,-,"(720, 360, 24)",Android 8.1.0,Chrome Mobile WebView 78.0.3904,213.87.158.235,Russia,RU,MOW,Moscow,Moscow,125315,55.7483,37.6171,Europe/Moscow,True,False,False,red
1061,8db05325-e9d0-4c94-a4a2-efb313f9ab11,0007f265568f1abc1da791e852877df2047b3af9,Bank11,No data,-,"(720, 360, 24)",Android 8.1.0,Chrome Mobile WebView 78.0.3904,213.87.137.181,Russia,RU,MOW,Moscow,Moscow,127434,55.7483,37.6171,Europe/Moscow,True,False,False,red
1062,8db05325-e9d0-4c94-a4a2-efb313f9ab11,0007f265568f1abc1da791e852877df2047b3af9,Bank11,No data,-,"(720, 360, 24)",Android 8.1.0,Chrome Mobile WebView 78.0.3904,213.87.163.242,Russia,RU,MOW,Moscow,Moscow,107140,55.7483,37.6171,Europe/Moscow,True,False,False,red
1063,8db05325-e9d0-4c94-a4a2-efb313f9ab11,0007f265568f1abc1da791e852877df2047b3af9,Bank11,No data,-,"(720, 360, 24)",Android 8.1.0,Chrome Mobile WebView 78.0.3904,213.87.159.202,Russia,RU,MOW,Moscow,Moscow,127220,55.7483,37.6171,Europe/Moscow,True,False,False,red
1064,8db05325-e9d0-4c94-a4a2-efb313f9ab11,0007f265568f1abc1da791e852877df2047b3af9,Bank11,No data,-,"(720, 360, 24)",Android 8.1.0,Chrome Mobile WebView 78.0.3904,213.87.160.237,Russia,RU,MOW,Moscow,Moscow,109386,55.7483,37.6171,Europe/Moscow,True,False,False,red
1065,8db05325-e9d0-4c94-a4a2-efb313f9ab11,0007f265568f1abc1da791e852877df2047b3af9,Bank11,No data,-,"(720, 360, 24)",Android 8.1.0,Chrome Mobile WebView 79.0.3945,213.87.133.206,Russia,RU,MOW,Moscow,Moscow,129075,55.7483,37.6171,Europe/Moscow,True,False,False,red
1066,91b12379-8098-457f-a2ad-a94d767797c2,00064120f0aa15e8c4197cf9f18a03a6e4bd35cb,Bank4,No data,-,"(736, 414, 32)",iOS 11.2.2,Mobile Safari UI/WKWebView 11.2.2,85.140.1.243,Russia,RU,BA,Bashkortostan Republic,Ufa,450000,54.7505,55.9457,Asia/Yekaterinburg,True,False,False,red
1067,91b12379-8098-457f-a2ad-a94d767797c2,-,Bank4,No data,-,"(736, 414, 32)",iOS 11.2.2,Mobile Safari UI/WKWebView 11.2.2,85.140.2.62,Russia,RU,BA,Bashkortostan Republic,Ufa,450000,54.7505,55.9457,Asia/Yekaterinburg,True,False,False,red
1068,91b12379-8098-457f-a2ad-a94d767797c2,-,Bank4,No data,-,"(736, 414, 32)",iOS 11.2.2,Mobile Safari UI/WKWebView 11.2.2,85.140.1.243,Russia,RU,BA,Bashkortostan Republic,Ufa,450000,54.7505,55.9457,Asia/Yekaterinburg,True,False,False,red
1176,cdaa8673-164d-44a7-80a0-99cd4cfe3818,0007f265568f1abc1da791e852877df2047b3af9,Bank11,69DBFA5B34C4E9919A68738F94D85DD59F35E968,-,"(720, 360, 24)",Android 8.1.0,Chrome Mobile WebView 79.0.3945,213.87.138.119,Russia,RU,MOW,Moscow,Moscow,127434,55.7483,37.6171,Europe/Moscow,True,False,False,red
1177,cdaa8673-164d-44a7-80a0-99cd4cfe3818,0007f265568f1abc1da791e852877df2047b3af9,Bank11,69DBFA5B34C4E9919A68738F94D85DD59F35E968,-,"(720, 360, 24)",Android 8.1.0,Chrome Mobile WebView 79.0.3945,188.170.82.48,Russia,RU,SPE,St.-Petersburg,St Petersburg,190000,59.8983,30.2618,Europe/Moscow,True,False,False,red
1178,cdaa8673-164d-44a7-80a0-99cd4cfe3818,0007f265568f1abc1da791e852877df2047b3af9,Bank11,69DBFA5B34C4E9919A68738F94D85DD59F35E968,-,"(720, 360, 24)",Android 8.1.0,Chrome Mobile WebView 79.0.3945,213.87.150.241,Russia,RU,MOW,Moscow,Moscow,127434,55.7483,37.6171,Europe/Moscow,True,False,False,red
1179,cdaa8673-164d-44a7-80a0-99cd4cfe3818,0007f265568f1abc1da791e852877df2047b3af9,Bank11,69DBFA5B34C4E9919A68738F94D85DD59F35E968,-,"(720, 360, 24)",Android 8.1.0,Chrome Mobile WebView 79.0.3945,213.87.156.59,Russia,RU,MOW,Moscow,Moscow,127434,55.7483,37.6171,Europe/Moscow,True,False,False,red
1180,cdaa8673-164d-44a7-80a0-99cd4cfe3818,0007f265568f1abc1da791e852877df2047b3af9,Bank11,69DBFA5B34C4E9919A68738F94D85DD59F35E968,-,"(720, 360, 24)",Android 8.1.0,Chrome Mobile WebView 79.0.3945,188.170.83.111,Russia,RU,SPE,St.-Petersburg,St Petersburg,190000,59.8983,30.2618,Europe/Moscow,True,False,False,red
1181,cdaa8673-164d-44a7-80a0-99cd4cfe3818,0007f265568f1abc1da791e852877df2047b3af9,Bank11,69DBFA5B34C4E9919A68738F94D85DD59F35E968,-,"(720, 360, 24)",Android 8.1.0,Chrome Mobile WebView 79.0.3945,188.170.74.42,Russia,RU,SPE,St.-Petersburg,St Petersburg,190000,59.8983,30.2618,Europe/Moscow,True,False,False,red
1182,cdaa8673-164d-44a7-80a0-99cd4cfe3818,0007f265568f1abc1da791e852877df2047b3af9,Bank11,69DBFA5B34C4E9919A68738F94D85DD59F35E968,-,"(720, 360, 24)",Android 8.1.0,Chrome Mobile WebView 79.0.3945,188.170.73.158,Russia,RU,SPE,St.-Petersburg,St Petersburg,190971,59.8983,30.2618,Europe/Moscow,True,False,False,red
1183,cdaa8673-164d-44a7-80a0-99cd4cfe3818,0007f265568f1abc1da791e852877df2047b3af9,Bank11,69DBFA5B34C4E9919A68738F94D85DD59F35E968,-,"(720, 360, 24)",Android 8.1.0,Chrome Mobile WebView 79.0.3945,213.87.135.50,Russia,RU,MOW,Moscow,Moscow,127434,55.7483,37.6171,Europe/Moscow,True,False,False,red
1184,cdaa8673-164d-44a7-80a0-99cd4cfe3818,0007f265568f1abc1da791e852877df2047b3af9,Bank11,69DBFA5B34C4E9919A68738F94D85DD59F35E968,-,"(720, 360, 24)",Android 8.1.0,Chrome Mobile WebView 79.0.3945,188.170.80.169,Russia,RU,SPE,St.-Petersburg,St Petersburg,190971,59.8983,30.2618,Europe/Moscow,True,False,False,red
1185,cdaa8673-164d-44a7-80a0-99cd4cfe3818,0007f265568f1abc1da791e852877df2047b3af9,Bank11,69DBFA5B34C4E9919A68738F94D85DD59F35E968,-,"(720, 360, 24)",Android 8.1.0,Chrome Mobile WebView 79.0.3945,188.170.81.95,Russia,RU,SPE,St.-Petersburg,St Petersburg,190987,59.8983,30.2618,Europe/Moscow,True,False,False,red
1186,cdaa8673-164d-44a7-80a0-99cd4cfe3818,-,Bank11,69DBFA5B34C4E9919A68738F94D85DD59F35E968,-,"(720, 360, 24)",Android 8.1.0,Chrome Mobile WebView 79.0.3945,188.170.73.158,Russia,RU,SPE,St.-Petersburg,St Petersburg,190971,59.8983,30.2618,Europe/Moscow,True,False,False,red
1187,cdaa8673-164d-44a7-80a0-99cd4cfe3818,0007f265568f1abc1da791e852877df2047b3af9,Bank11,69DBFA5B34C4E9919A68738F94D85DD59F35E968,-,"(720, 360, 24)",Android 8.1.0,Chrome Mobile WebView 79.0.3945,213.87.129.24,Russia,RU,MOW,Moscow,Moscow,127434,55.7483,37.6171,Europe/Moscow,True,False,False,red
1188,cdaa8673-164d-44a7-80a0-99cd4cfe3818,-,Bank11,69DBFA5B34C4E9919A68738F94D85DD59F35E968,-,"(720, 360, 24)",Android 8.1.0,Chrome Mobile WebView 79.0.3945,213.87.131.82,Russia,RU,MOW,Moscow,Moscow,127434,55.7483,37.6171,Europe/Moscow,True,False,False,red
1189,cdaa8673-164d-44a7-80a0-99cd4cfe3818,0007f265568f1abc1da791e852877df2047b3af9,Bank11,69DBFA5B34C4E9919A68738F94D85DD59F35E968,-,"(720, 360, 24)",Android 8.1.0,Chrome Mobile WebView 79.0.3945,188.170.79.124,Russia,RU,SPE,St.-Petersburg,St Petersburg,190971,59.8983,30.2618,Europe/Moscow,True,False,False,red
1190,cdaa8673-164d-44a7-80a0-99cd4cfe3818,-,Bank11,69DBFA5B34C4E9919A68738F94D85DD59F35E968,-,"(720, 360, 24)",Android 8.1.0,Chrome Mobile WebView 79.0.3945,188.170.83.111,Russia,RU,SPE,St.-Petersburg,St Petersburg,190000,59.8983,30.2618,Europe/Moscow,True,False,False,red
1191,cdaa8673-164d-44a7-80a0-99cd4cfe3818,-,Bank11,69DBFA5B34C4E9919A68738F94D85DD59F35E968,-,"(720, 360, 24)",Android 8.1.0,Chrome Mobile WebView 79.0.3945,213.87.138.119,Russia,RU,MOW,Moscow,Moscow,127434,55.7483,37.6171,Europe/Moscow,True,False,False,red
1192,cdaa8673-164d-44a7-80a0-99cd4cfe3818,0007f265568f1abc1da791e852877df2047b3af9,Bank11,69DBFA5B34C4E9919A68738F94D85DD59F35E968,-,"(720, 360, 24)",Android 8.1.0,Chrome Mobile WebView 79.0.3945,213.87.131.82,Russia,RU,MOW,Moscow,Moscow,127434,55.7483,37.6171,Europe/Moscow,True,False,False,red
1193,cdaa8673-164d-44a7-80a0-99cd4cfe3818,0007f265568f1abc1da791e852877df2047b3af9,Bank11,69DBFA5B34C4E9919A68738F94D85DD59F35E968,-,"(720, 360, 24)",Android 8.1.0,Chrome Mobile WebView 79.0.3945,213.87.162.235,Russia,RU,MOW,Moscow,Moscow,127434,55.7483,37.6171,Europe/Moscow,True,False,False,red
1194,cdaa8673-164d-44a7-80a0-99cd4cfe3818,0007f265568f1abc1da791e852877df2047b3af9,Bank11,69DBFA5B34C4E9919A68738F94D85DD59F35E968,-,"(720, 360, 24)",Android 8.1.0,Chrome Mobile WebView 79.0.3945,213.87.131.175,Russia,RU,MOW,Moscow,Moscow,127434,55.7483,37.6171,Europe/Moscow,True,False,False,red
1195,cdaa8673-164d-44a7-80a0-99cd4cfe3818,-,Bank11,69DBFA5B34C4E9919A68738F94D85DD59F35E968,-,"(720, 360, 24)",Android 8.1.0,Chrome Mobile WebView 79.0.3945,213.87.147.83,Russia,RU,MOW,Moscow,Moscow,125315,55.7483,37.6171,Europe/Moscow,True,False,False,red
1196,cdaa8673-164d-44a7-80a0-99cd4cfe3818,0007f265568f1abc1da791e852877df2047b3af9,Bank11,69DBFA5B34C4E9919A68738F94D85DD59F35E968,-,"(720, 360, 24)",Android 8.1.0,Chrome Mobile WebView 79.0.3945,188.170.82.31,Russia,RU,SPE,St.-Petersburg,St Petersburg,190000,59.8983,30.2618,Europe/Moscow,True,False,False,red
1197,cdaa8673-164d-44a7-80a0-99cd4cfe3818,-,Bank11,69DBFA5B34C4E9919A68738F94D85DD59F35E968,-,"(720, 360, 24)",Android 8.1.0,Chrome Mobile WebView 79.0.3945,188.170.74.42,Russia,RU,SPE,St.-Petersburg,St Petersburg,190000,59.8983,30.2618,Europe/Moscow,True,False,False,red
1198,cdaa8673-164d-44a7-80a0-99cd4cfe3818,0007f265568f1abc1da791e852877df2047b3af9,Bank11,69DBFA5B34C4E9919A68738F94D85DD59F35E968,-,"(720, 360, 24)",Android 8.1.0,Chrome Mobile WebView 79.0.3945,213.87.133.198,Russia,RU,MOW,Moscow,Moscow,129075,55.7483,37.6171,Europe/Moscow,True,False,False,red
1199,cdaa8673-164d-44a7-80a0-99cd4cfe3818,0007f265568f1abc1da791e852877df2047b3af9,Bank11,69DBFA5B34C4E9919A68738F94D85DD59F35E968,-,"(720, 360, 24)",Android 8.1.0,Chrome Mobile WebView 79.0.3945,188.170.79.15,Russia,RU,SPE,St.-Petersburg,St Petersburg,190971,59.8983,30.2618,Europe/Moscow,True,False,False,red
1200,cdaa8673-164d-44a7-80a0-99cd4cfe3818,0007f265568f1abc1da791e852877df2047b3af9,Bank11,69DBFA5B34C4E9919A68738F94D85DD59F35E968,-,"(720, 360, 24)",Android 8.1.0,Chrome Mobile WebView 79.0.3945,213.87.159.164,Russia,RU,MOW,Moscow,Moscow,127220,55.7483,37.6171,Europe/Moscow,True,False,False,red
1201,cdaa8673-164d-44a7-80a0-99cd4cfe3818,0007f265568f1abc1da791e852877df2047b3af9,Bank11,69DBFA5B34C4E9919A68738F94D85DD59F35E968,-,"(720, 360, 24)",Android 8.1.0,Chrome Mobile WebView 79.0.3945,213.87.147.105,Russia,RU,MOW,Moscow,Moscow,125315,55.7483,37.6171,Europe/Moscow,True,False,False,red
1202,cdaa8673-164d-44a7-80a0-99cd4cfe3818,-,Bank11,69DBFA5B34C4E9919A68738F94D85DD59F35E968,-,"(720, 360, 24)",Android 8.1.0,Chrome Mobile WebView 79.0.3945,213.87.134.173,Russia,RU,MOW,Moscow,Moscow,127434,55.7483,37.6171,Europe/Moscow,True,False,False,red
1203,cdaa8673-164d-44a7-80a0-99cd4cfe3818,0007f265568f1abc1da791e852877df2047b3af9,Bank11,69DBFA5B34C4E9919A68738F94D85DD59F35E968,-,"(720, 360, 24)",Android 8.1.0,Chrome Mobile WebView 79.0.3945,213.87.155.35,Russia,RU,MOW,Moscow,Moscow,127434,55.7483,37.6171,Europe/Moscow,True,False,False,red
1204,cdaa8673-164d-44a7-80a0-99cd4cfe3818,-,Bank11,69DBFA5B34C4E9919A68738F94D85DD59F35E968,-,"(720, 360, 24)",Android 8.1.0,Chrome Mobile WebView 79.0.3945,188.170.82.48,Russia,RU,SPE,St.-Petersburg,St Petersburg,190000,59.8983,30.2618,Europe/Moscow,True,False,False,red
1205,cdaa8673-164d-44a7-80a0-99cd4cfe3818,0007f265568f1abc1da791e852877df2047b3af9,Bank11,69DBFA5B34C4E9919A68738F94D85DD59F35E968,-,"(720, 360, 24)",Android 8.1.0,Chrome Mobile WebView 79.0.3945,213.87.131.216,Russia,RU,MOW,Moscow,Moscow,127434,55.7483,37.6171,Europe/Moscow,True,False,False,red
1206,cdaa8673-164d-44a7-80a0-99cd4cfe3818,0007f265568f1abc1da791e852877df2047b3af9,Bank11,69DBFA5B34C4E9919A68738F94D85DD59F35E968,-,"(720, 360, 24)",Android 8.1.0,Chrome Mobile WebView 79.0.3945,213.87.147.25,Russia,RU,MOW,Moscow,Moscow,125315,55.7483,37.6171,Europe/Moscow,True,False,False,red
1207,cdaa8673-164d-44a7-80a0-99cd4cfe3818,-,Bank11,69DBFA5B34C4E9919A68738F94D85DD59F35E968,-,"(720, 360, 24)",Android 8.1.0,Chrome Mobile WebView 79.0.3945,213.87.150.241,Russia,RU,MOW,Moscow,Moscow,127434,55.7483,37.6171,Europe/Moscow,True,False,False,red
1208,cdaa8673-164d-44a7-80a0-99cd4cfe3818,0007f265568f1abc1da791e852877df2047b3af9,Bank11,69DBFA5B34C4E9919A68738F94D85DD59F35E968,-,"(720, 360, 24)",Android 8.1.0,Chrome Mobile WebView 79.0.3945,213.87.156.12,Russia,RU,MOW,Moscow,Moscow,127434,55.7483,37.6171,Europe/Moscow,True,False,False,red
1694,5d2c2da3-0d53-4444-a625-2480606e2c29,0007f265568f1abc1da791e852877df2047b3af9,Bank11,No data,-,"(720, 360, 24)",Android 8.1.0,Chrome Mobile WebView 78.0.3904,213.87.160.55,Russia,RU,MOW,Moscow,Moscow,109386,55.7483,37.6171,Europe/Moscow,True,False,False,red
1695,5d2c2da3-0d53-4444-a625-2480606e2c29,0007f265568f1abc1da791e852877df2047b3af9,Bank11,No data,-,"(720, 360, 24)",Android 8.1.0,Chrome Mobile WebView 78.0.3904,188.170.82.15,Russia,RU,SPE,St.-Petersburg,St Petersburg,190000,59.8983,30.2618,Europe/Moscow,True,False,False,red
1701,5d2c2da3-0d53-4444-a625-2480606e2c29,0007f265568f1abc1da791e852877df2047b3af9,Bank11,No data,-,"(720, 360, 24)",Android 8.1.0,Chrome Mobile WebView 78.0.3904,213.87.135.116,Russia,RU,MOW,Moscow,Moscow,127434,55.7483,37.6171,Europe/Moscow,True,False,False,red
1702,5d2c2da3-0d53-4444-a625-2480606e2c29,0007f265568f1abc1da791e852877df2047b3af9,Bank11,No data,-,"(720, 360, 24)",Android 8.1.0,Chrome Mobile WebView 78.0.3904,213.87.155.216,Russia,RU,MOW,Moscow,Moscow,127434,55.7483,37.6171,Europe/Moscow,True,False,False,red
1725,8db05325-e9d0-4c94-a4a2-efb313f9ab11,0007f265568f1abc1da791e852877df2047b3af9,Bank11,No data,-,"(720, 360, 24)",Android 8.1.0,Chrome Mobile WebView 78.0.3904,213.87.148.240,Russia,RU,MOW,Moscow,Moscow,129075,55.7483,37.6171,Europe/Moscow,True,False,False,red
1726,8db05325-e9d0-4c94-a4a2-efb313f9ab11,0007f265568f1abc1da791e852877df2047b3af9,Bank11,No data,-,"(720, 360, 24)",Android 8.1.0,Chrome Mobile WebView 78.0.3904,188.170.72.184,Russia,RU,SPE,St.-Petersburg,St Petersburg,190971,59.8983,30.2618,Europe/Moscow,True,False,False,red
1727,8db05325-e9d0-4c94-a4a2-efb313f9ab11,0007f265568f1abc1da791e852877df2047b3af9,Bank11,No data,-,"(720, 360, 24)",Android 8.1.0,Chrome Mobile WebView 78.0.3904,213.87.160.239,Russia,RU,MOW,Moscow,Moscow,109386,55.7483,37.6171,Europe/Moscow,True,False,False,red
1728,8db05325-e9d0-4c94-a4a2-efb313f9ab11,0007f265568f1abc1da791e852877df2047b3af9,Bank11,No data,-,"(720, 360, 24)",Android 8.1.0,Chrome Mobile WebView 78.0.3904,213.87.160.219,Russia,RU,MOW,Moscow,Moscow,109386,55.7483,37.6171,Europe/Moscow,True,False,False,red
1729,8db05325-e9d0-4c94-a4a2-efb313f9ab11,0007f265568f1abc1da791e852877df2047b3af9,Bank11,No data,-,"(720, 360, 24)",Android 8.1.0,Chrome Mobile WebView 78.0.3904,213.87.128.156,Russia,RU,MOW,Moscow,Moscow,129075,55.7483,37.6171,Europe/Moscow,True,False,False,red
1730,8db05325-e9d0-4c94-a4a2-efb313f9ab11,0007f265568f1abc1da791e852877df2047b3af9,Bank11,No data,-,"(720, 360, 24)",Android 8.1.0,Chrome Mobile WebView 78.0.3904,213.87.133.71,Russia,RU,MOW,Moscow,Moscow,129075,55.7483,37.6171,Europe/Moscow,True,False,False,red
1731,8db05325-e9d0-4c94-a4a2-efb313f9ab11,0007f265568f1abc1da791e852877df2047b3af9,Bank11,No data,-,"(720, 360, 24)",Android 8.1.0,Chrome Mobile WebView 78.0.3904,213.87.138.129,Russia,RU,MOW,Moscow,Moscow,127434,55.7483,37.6171,Europe/Moscow,True,False,False,red
1752,cdaa8673-164d-44a7-80a0-99cd4cfe3818,-,Bank11,69DBFA5B34C4E9919A68738F94D85DD59F35E968,-,"(720, 360, 24)",Android 8.1.0,Chrome Mobile WebView 79.0.3945,213.87.132.189,Russia,RU,MOW,Moscow,Moscow,127434,55.7483,37.6171,Europe/Moscow,True,False,False,red
1753,cdaa8673-164d-44a7-80a0-99cd4cfe3818,-,Bank11,69DBFA5B34C4E9919A68738F94D85DD59F35E968,-,"(720, 360, 24)",Android 8.1.0,Chrome Mobile WebView 79.0.3945,213.87.129.192,Russia,RU,MOW,Moscow,Moscow,127434,55.7483,37.6171,Europe/Moscow,True,False,False,red
1754,cdaa8673-164d-44a7-80a0-99cd4cfe3818,-,Bank11,69DBFA5B34C4E9919A68738F94D85DD59F35E968,-,"(720, 360, 24)",Android 8.1.0,Chrome Mobile WebView 79.0.3945,213.87.138.43,Russia,RU,MOW,Moscow,Moscow,127434,55.7483,37.6171,Europe/Moscow,True,False,False,red
1755,cdaa8673-164d-44a7-80a0-99cd4cfe3818,-,Bank11,69DBFA5B34C4E9919A68738F94D85DD59F35E968,-,"(720, 360, 24)",Android 8.1.0,Chrome Mobile WebView 79.0.3945,213.87.156.184,Russia,RU,MOW,Moscow,Moscow,127434,55.7483,37.6171,Europe/Moscow,True,False,False,red
1756,cdaa8673-164d-44a7-80a0-99cd4cfe3818,-,Bank11,69DBFA5B34C4E9919A68738F94D85DD59F35E968,-,"(720, 360, 24)",Android 8.1.0,Chrome Mobile WebView 79.0.3945,213.87.162.53,Russia,RU,MOW,Moscow,Moscow,127434,55.7483,37.6171,Europe/Moscow,True,False,False,red
1757,cdaa8673-164d-44a7-80a0-99cd4cfe3818,-,Bank11,69DBFA5B34C4E9919A68738F94D85DD59F35E968,-,"(720, 360, 24)",Android 8.1.0,Chrome Mobile WebView 79.0.3945,213.87.130.227,Russia,RU,MOW,Moscow,Moscow,127434,55.7483,37.6171,Europe/Moscow,True,False,False,red
1758,cdaa8673-164d-44a7-80a0-99cd4cfe3818,0007f265568f1abc1da791e852877df2047b3af9,Bank11,69DBFA5B34C4E9919A68738F94D85DD59F35E968,-,"(720, 360, 24)",Android 8.1.0,Chrome Mobile WebView 79.0.3945,213.87.134.128,Russia,RU,MOW,Moscow,Moscow,127434,55.7483,37.6171,Europe/Moscow,True,False,False,red
1759,cdaa8673-164d-44a7-80a0-99cd4cfe3818,0007f265568f1abc1da791e852877df2047b3af9,Bank11,69DBFA5B34C4E9919A68738F94D85DD59F35E968,-,"(720, 360, 24)",Android 8.1.0,Chrome Mobile WebView 79.0.3945,213.87.149.20,Russia,RU,MOW,Moscow,Moscow,127220,55.7483,37.6171,Europe/Moscow,True,False,False,red
1760,cdaa8673-164d-44a7-80a0-99cd4cfe3818,0007f265568f1abc1da791e852877df2047b3af9,Bank11,69DBFA5B34C4E9919A68738F94D85DD59F35E968,-,"(720, 360, 24)",Android 8.1.0,Chrome Mobile WebView 79.0.3945,213.87.131.236,Russia,RU,MOW,Moscow,Moscow,127434,55.7483,37.6171,Europe/Moscow,True,False,False,red
1761,cdaa8673-164d-44a7-80a0-99cd4cfe3818,0007f265568f1abc1da791e852877df2047b3af9,Bank11,69DBFA5B34C4E9919A68738F94D85DD59F35E968,-,"(720, 360, 24)",Android 8.1.0,Chrome Mobile WebView 79.0.3945,188.170.82.48,Russia,RU,SPE,St.-Petersburg,St Petersburg,190000,59.8983,30.2618,Europe/Moscow,True,False,False,red
1762,cdaa8673-164d-44a7-80a0-99cd4cfe3818,0007f265568f1abc1da791e852877df2047b3af9,Bank11,69DBFA5B34C4E9919A68738F94D85DD59F35E968,-,"(720, 360, 24)",Android 8.1.0,Chrome Mobile WebView 79.0.3945,213.87.138.161,Russia,RU,MOW,Moscow,Moscow,127434,55.7483,37.6171,Europe/Moscow,True,False,False,red
1763,cdaa8673-164d-44a7-80a0-99cd4cfe3818,0007f265568f1abc1da791e852877df2047b3af9,Bank11,69DBFA5B34C4E9919A68738F94D85DD59F35E968,-,"(720, 360, 24)",Android 8.1.0,Chrome Mobile WebView 79.0.3945,213.87.131.205,Russia,RU,MOW,Moscow,Moscow,127434,55.7483,37.6171,Europe/Moscow,True,False,False,red
1764,cdaa8673-164d-44a7-80a0-99cd4cfe3818,0007f265568f1abc1da791e852877df2047b3af9,Bank11,69DBFA5B34C4E9919A68738F94D85DD59F35E968,-,"(720, 360, 24)",Android 8.1.0,Chrome Mobile WebView 79.0.3945,213.87.133.204,Russia,RU,MOW,Moscow,Moscow,129075,55.7483,37.6171,Europe/Moscow,True,False,False,red
1765,cdaa8673-164d-44a7-80a0-99cd4cfe3818,0007f265568f1abc1da791e852877df2047b3af9,Bank11,69DBFA5B34C4E9919A68738F94D85DD59F35E968,-,"(720, 360, 24)",Android 8.1.0,Chrome Mobile WebView 79.0.3945,213.87.149.20,Russia,RU,MOW,Moscow,Moscow,127220,55.7483,37.6171,Europe/Moscow,True,False,False,red
1766,cdaa8673-164d-44a7-80a0-99cd4cfe3818,0007f265568f1abc1da791e852877df2047b3af9,Bank11,69DBFA5B34C4E9919A68738F94D85DD59F35E968,-,"(720, 360, 24)",Android 8.1.0,Chrome Mobile WebView 79.0.3945,213.87.137.100,Russia,RU,MOW,Moscow,Moscow,127434,55.7483,37.6171,Europe/Moscow,True,False,False,red
1767,cdaa8673-164d-44a7-80a0-99cd4cfe3818,0007f265568f1abc1da791e852877df2047b3af9,Bank11,69DBFA5B34C4E9919A68738F94D85DD59F35E968,-,"(720, 360, 24)",Android 8.1.0,Chrome Mobile WebView 79.0.3945,213.87.136.98,Russia,RU,MOW,Moscow,Moscow,127434,55.7483,37.6171,Europe/Moscow,True,False,False,red
1768,cdaa8673-164d-44a7-80a0-99cd4cfe3818,0007f265568f1abc1da791e852877df2047b3af9,Bank11,69DBFA5B34C4E9919A68738F94D85DD59F35E968,-,"(720, 360, 24)",Android 8.1.0,Chrome Mobile WebView 79.0.3945,213.87.138.168,Russia,RU,MOW,Moscow,Moscow,127434,55.7483,37.6171,Europe/Moscow,True,False,False,red
1769,cdaa8673-164d-44a7-80a0-99cd4cfe3818,-,Bank11,69DBFA5B34C4E9919A68738F94D85DD59F35E968,-,"(720, 360, 24)",Android 8.1.0,Chrome Mobile WebView 79.0.3945,188.170.82.48,Russia,RU,SPE,St.-Petersburg,St Petersburg,190000,59.8983,30.2618,Europe/Moscow,True,False,False,red
1770,cdaa8673-164d-44a7-80a0-99cd4cfe3818,-,Bank11,69DBFA5B34C4E9919A68738F94D85DD59F35E968,-,"(720, 360, 24)",Android 8.1.0,Chrome Mobile WebView 79.0.3945,213.87.153.239,Russia,RU,MOW,Moscow,Moscow,127434,55.7483,37.6171,Europe/Moscow,True,False,False,red
1771,cdaa8673-164d-44a7-80a0-99cd4cfe3818,0007f265568f1abc1da791e852877df2047b3af9,Bank11,69DBFA5B34C4E9919A68738F94D85DD59F35E968,-,"(720, 360, 24)",Android 8.1.0,Chrome Mobile WebView 79.0.3945,213.87.157.236,Russia,RU,MOW,Moscow,Moscow,125315,55.7483,37.6171,Europe/Moscow,True,False,False,red
1772,cdaa8673-164d-44a7-80a0-99cd4cfe3818,0007f265568f1abc1da791e852877df2047b3af9,Bank11,69DBFA5B34C4E9919A68738F94D85DD59F35E968,-,"(720, 360, 24)",Android 8.1.0,Chrome Mobile WebView 79.0.3945,188.170.82.31,Russia,RU,SPE,St.-Petersburg,St Petersburg,190000,59.8983,30.2618,Europe/Moscow,True,False,False,red
1773,cdaa8673-164d-44a7-80a0-99cd4cfe3818,0007f265568f1abc1da791e852877df2047b3af9,Bank11,69DBFA5B34C4E9919A68738F94D85DD59F35E968,-,"(720, 360, 24)",Android 8.1.0,Chrome Mobile WebView 79.0.3945,213.87.147.83,Russia,RU,MOW,Moscow,Moscow,125315,55.7483,37.6171,Europe/Moscow,True,False,False,red
1774,cdaa8673-164d-44a7-80a0-99cd4cfe3818,0007f265568f1abc1da791e852877df2047b3af9,Bank11,69DBFA5B34C4E9919A68738F94D85DD59F35E968,-,"(720, 360, 24)",Android 8.1.0,Chrome Mobile WebView 79.0.3945,213.87.149.20,Russia,RU,MOW,Moscow,Moscow,127220,55.7483,37.6171,Europe/Moscow,True,False,False,red
1775,cdaa8673-164d-44a7-80a0-99cd4cfe3818,0007f265568f1abc1da791e852877df2047b3af9,Bank11,69DBFA5B34C4E9919A68738F94D85DD59F35E968,-,"(720, 360, 24)",Android 8.1.0,Chrome Mobile WebView 79.0.3945,213.87.132.170,Russia,RU,MOW,Moscow,Moscow,127434,55.7483,37.6171,Europe/Moscow,True,False,False,red
1049,8db05325-e9d0-4c94-a4a2-efb313f9ab11,-,Bank11,No data,-,"(720, 360, 24)",Android 8.1.0,Chrome Mobile WebView 79.0.3945,188.170.81.214,Russia,RU,SPE,St.-Petersburg,St Petersburg,190987,59.8983,30.2618,Europe/Moscow,True,False,False,yellow
